GLOBALSTAR M035         
1 25851U 99037A   25246.03533197 -.00000087  00000+0 -88463-3 0  9997
2 25851  51.9916 241.3583 0013404 107.1821 289.8577 11.04539229104863
GLOBALSTAR M032         
1 25852U 99037B   25246.22214105 -.00000040  00000+0  85443-3 0  9997
2 25852  51.9958  60.7526 0011750 299.8499  60.1133 11.19062957143521
GLOBALSTAR M051         
1 25853U 99037C   25246.20347807 -.00000054  00000+0  45087-3 0  9997
2 25853  51.9768 212.6866 0000807   4.0546 356.0271 11.42205623141305
GLOBALSTAR M030         
1 25854U 99037D   25246.05146905 -.00000083  00000+0 -17173-3 0  9995
2 25854  51.9917  14.2075 0003347 175.6366 184.4480 11.55113723159045
GLOBALSTAR M048         
1 25872U 99041A   25246.25183676 -.00000069  00000+0  24200-4 0  9991
2 25872  51.9359 150.6232 0013521 323.0398 214.9864 11.33858823133831
GLOBALSTAR M026         
1 25873U 99041B   25246.25459905 -.00000069  00000+0 -19742-3 0  9998
2 25873  52.0054 358.0049 0001900  57.8400 312.5175 11.06849683157133
GLOBALSTAR M043         
1 25874U 99041C   25246.24060704 -.00000028  00000+0  12025-2 0  9993
2 25874  51.9375 261.4065 0013416  84.9621  17.6269 11.25696241131662
GLOBALSTAR M028         
1 25875U 99041D   25246.23868907 -.00000071  00000+0  18946-3 0  9991
2 25875  51.9647 320.3313 0063102 240.5348 118.9207 12.50586753199946
